FLOCK 4G-3              
1 62639U 25009AG  26068.80174065  .00011494  00000+0  43389-3 0  9993
2 62639  97.4062 151.4068 0001320 293.2042  66.9058 15.27179310 63727
STARLINK-36490          
1 67305U 26002A   26068.04462430  .00030425  00000+0  11109-2 0  9993
2 67305  43.0048 328.6178 0002224 263.5738  96.4861 15.27570065 11049
